start=new Date('2022-11-13T00:00:00.000Z').valueOf();
sats=[{"RCS_SIZE":"LARGE","MEAN_ANOMALY":"310.2814","TLE_LINE2":"2 47805  53.0548 279.4543 0001727  49.8326 310.2814 15.06394296 93976","GP_ID":"217529821","LAUNCH_DATE":"2021-03-11","SITE":"AFETR","ECCENTRICITY":"0.00017270","EPOCH":"2022-11-12T04:41:41.650944","DECAY_DATE":null,"RA_OF_ASC_NODE":"279.4543","ARG_OF_PERICENTER":"49.8326","CLASSIFICATION_TYPE":"U","REV_AT_EPOCH":"9397","EPHEMERIS_TYPE":"0","MEAN_MOTION":"15.06394296","TLE_LINE1":"1 47805U 21018U   22316.19562096  .00001084  00000-0  91680-4 0  9999","PERIAPSIS":"546.035","NORAD_CAT_ID":"47805","APOAPSIS":"548.427","TIME_SYSTEM":"UTC","REF_FRAME":"TEME","MEAN_ELEMENT_THEORY":"SGP4","SEMIMAJOR_AXIS":"6925.366","PERIOD":"95.593","BSTAR":"0.00009168000000","OBJECT_TYPE":"PAYLOAD","ELEMENT_SET_NO":"999","INCLINATION":"53.0548","OBJECT_ID":"2021-018U","OBJECT_NAME":"STARLINK-2386","FILE":"3652392","CENTER_NAME":"EARTH","COUNTRY_CODE":"US","MEAN_MOTION_DOT":"0.00001084","MEAN_MOTION_DDOT":"0.0000000000000"},{"GP_ID":"217585648","LAUNCH_DATE":"2021-03-11","SITE":"AFETR","ECCENTRICITY":"0.00021760","RCS_SIZE":"LARGE","TLE_LINE2":"2 47806  53.0549 292.1183 0002176  43.3626 316.7534 15.06425172 93890","MEAN_ANOMALY":"316.7534","REV_AT_EPOCH":"9389","EPHEMERIS_TYPE":"0","MEAN_MOTION":"15.06425172","RA_OF_ASC_NODE":"292.1183","DECAY_DATE":null,"EPOCH":"2022-11-12T15:56:24.597312","ARG_OF_PERICENTER":"43.3626","CLASSIFICATION_TYPE":"U","SEMIMAJOR_AXIS":"6925.271","PERIOD":"95.591","PERIAPSIS":"545.629","NORAD_CAT_ID":"47806","TLE_LINE1":"1 47806U 21018V   22316.66417358  .00011856  00000-0  81294-3 0  9999","TIME_SYSTEM":"UTC","MEAN_ELEMENT_THEORY":"SGP4","REF_FRAME":"TEME","APOAPSIS":"548.643","FILE":"3652635","OBJECT_NAME":"STARLINK-2387","OBJECT_ID":"2021-018V","MEAN_MOTION_DOT":"0.00011856","MEAN_MOTION_DDOT":"0.0000000000000","CENTER_NAME":"EARTH","COUNTRY_CODE":"US","OBJECT_TYPE":"PAYLOAD","ELEMENT_SET_NO":"999","BSTAR":"0.00081294000000","INCLINATION":"53.0549"},{"BSTAR":"0.00042842000000","OBJECT_TYPE":"PAYLOAD","ELEMENT_SET_NO":"999","INCLINATION":"53.0532","OBJECT_NAME":"STARLINK-2388","OBJECT_ID":"2021-018W","FILE":"3652635","CENTER_NAME":"EARTH","COUNTRY_CODE":"US","MEAN_MOTION_DOT":"0.00006107","MEAN_MOTION_DDOT":"0.0000000000000","TLE_LINE1":"1 47807U 21018W   22316.91895142  .00006107  00000-0  42842-3 0  9998","PERIAPSIS":"545.829","NORAD_CAT_ID":"47807","APOAPSIS":"548.548","TIME_SYSTEM":"UTC","REF_FRAME":"TEME","MEAN_ELEMENT_THEORY":"SGP4","SEMIMAJOR_AXIS":"6925.323","PERIOD":"95.592","DECAY_DATE":null,"EPOCH":"2022-11-12T22:03:17.402688","RA_OF_ASC_NODE":"265.9692","ARG_OF_PERICENTER":"36.1689","CLASSIFICATION_TYPE":"U","REV_AT_EPOCH":"9421","EPHEMERIS_TYPE":"0","MEAN_MOTION":"15.06408180","RCS_SIZE":"LARGE","MEAN_ANOMALY":"323.9433","TLE_LINE2":"2 47807  53.0532 265.9692 0001963  36.1689 323.9433 15.06408180 94213","GP_ID":"217586400","LAUNCH_DATE":"2021-03-11","SITE":"AFETR","ECCENTRICITY":"0.00019630"},{"SITE":"AFETR","ECCENTRICITY":"0.00022010","GP_ID":"217530573","LAUNCH_DATE":"2021-03-11","TLE_LINE2":"2 47808  53.0564 293.5201 0002201  41.9205 318.1952 15.06394726 93846","MEAN_ANOMALY":"318.1952","RCS_SIZE":"LARGE","MEAN_MOTION":"15.06394726","REV_AT_EPOCH":"9384","EPHEMERIS_TYPE":"0","ARG_OF_PERICENTER":"41.9205","CLASSIFICATION_TYPE":"U","RA_OF_ASC_NODE":"293.5201","DECAY_DATE":null,"EPOCH":"2022-11-12T08:25:14.832768","SEMIMAJOR_AXIS":"6925.365","PERIOD":"95.592","TIME_SYSTEM":"UTC","REF_FRAME":"TEME","MEAN_ELEMENT_THEORY":"SGP4","APOAPSIS":"548.754","PERIAPSIS":"545.705","NORAD_CAT_ID":"47808","TLE_LINE1":"1 47808U 21018X   22316.35086612  .00004123  00000-0  29559-3 0  9997","MEAN_MOTION_DDOT":"0.0000000000000","MEAN_MOTION_DOT":"0.00004123","CENTER_NAME":"EARTH","COUNTRY_CODE":"US","FILE":"3652392","OBJECT_NAME":"STARLINK-2389","OBJECT_ID":"2021-018X","OBJECT_TYPE":"PAYLOAD","BSTAR":"0.00029559000000","ELEMENT_SET_NO":"999","INCLINATION":"53.0564"},{"RCS_SIZE":"LARGE","MEAN_ANOMALY":"324.4435","TLE_LINE2":"2 47809  53.0543 296.9991 0002329  35.6709 324.4435 15.06420367 93822","LAUNCH_DATE":"2021-03-11","GP_ID":"217585899","SITE":"AFETR","ECCENTRICITY":"0.00023290","EPOCH":"2022-11-12T16:28:53.205024","DECAY_DATE":null,"RA_OF_ASC_NODE":"296.9991","ARG_OF_PERICENTER":"35.6709","CLASSIFICATION_TYPE":"U","REV_AT_EPOCH":"9382","EPHEMERIS_TYPE":"0","MEAN_MOTION":"15.06420367","TLE_LINE1":"1 47809U 21018Y   22316.68672691  .00008696  00000-0  60161-3 0  9995","PERIAPSIS":"545.538","NORAD_CAT_ID":"47809","APOAPSIS":"548.764","TIME_SYSTEM":"UTC","REF_FRAME":"TEME","MEAN_ELEMENT_THEORY":"SGP4","SEMIMAJOR_AXIS":"6925.286","PERIOD":"95.591","OBJECT_TYPE":"PAYLOAD","BSTAR":"0.00060161000000","ELEMENT_SET_NO":"999","INCLINATION":"53.0543","OBJECT_ID":"2021-018Y","OBJECT_NAME":"STARLINK-2390","FILE":"3652635","CENTER_NAME":"EARTH","COUNTRY_CODE":"US","MEAN_MOTION_DOT":"0.00008696","MEAN_MOTION_DDOT":"0.0000000000000"},{"MEAN_ANOMALY":"306.1444","TLE_LINE2":"2 47810  53.0549 308.3763 0001778  53.9709 306.1444 15.06402314 93633","RCS_SIZE":"LARGE","SITE":"AFETR","ECCENTRICITY":"0.00017780","LAUNCH_DATE":"2021-03-11","GP_ID":"217529571","ARG_OF_PERICENTER":"53.9709","CLASSIFICATION_TYPE":"U","EPOCH":"2022-11-12T09:08:22.851456","DECAY_DATE":null,"RA_OF_ASC_NODE":"308.3763","MEAN_MOTION":"15.06402314","REV_AT_EPOCH":"9363","EPHEMERIS_TYPE":"0","APOAPSIS":"548.438","TIME_SYSTEM":"UTC","REF_FRAME":"TEME","MEAN_ELEMENT_THEORY":"SGP4","TLE_LINE1":"1 47810U 21018Z   22316.38082004  .00006252  00000-0  43823-3 0  9999","PERIAPSIS":"545.975","NORAD_CAT_ID":"47810","SEMIMAJOR_AXIS":"6925.341","PERIOD":"95.592","OBJECT_TYPE":"PAYLOAD","BSTAR":"0.00043823000000","ELEMENT_SET_NO":"999","INCLINATION":"53.0549","CENTER_NAME":"EARTH","COUNTRY_CODE":"US","MEAN_MOTION_DDOT":"0.0000000000000","MEAN_MOTION_DOT":"0.00006252","OBJECT_NAME":"STARLINK-2391","OBJECT_ID":"2021-018Z","FILE":"3652392"},{"RA_OF_ASC_NODE":"277.3125","EPOCH":"2022-11-12T14:52:03.224928","DECAY_DATE":null,"ARG_OF_PERICENTER":"55.7898","CLASSIFICATION_TYPE":"U","REV_AT_EPOCH":"9409","EPHEMERIS_TYPE":"0","MEAN_MOTION":"15.06401876","RCS_SIZE":"LARGE","TLE_LINE2":"2 47811  53.0553 277.3125 0001620  55.7898 304.3245 15.06401876 94093","MEAN_ANOMALY":"304.3245","GP_ID":"217586901","LAUNCH_DATE":"2021-03-11","SITE":"AFETR","ECCENTRICITY":"0.00016200","BSTAR":"0.00035569000000","OBJECT_TYPE":"PAYLOAD","ELEMENT_SET_NO":"999","INCLINATION":"53.0553","FILE":"3652635","OBJECT_ID":"2021-018AA","OBJECT_NAME":"STARLINK-2392","MEAN_MOTION_DOT":"0.00005021","MEAN_MOTION_DDOT":"0.0000000000000","CENTER_NAME":"EARTH","COUNTRY_CODE":"US","PERIAPSIS":"546.086","NORAD_CAT_ID":"47811","TLE_LINE1":"1 47811U 21018AA  22316.61948177  .00005021  00000-0  35569-3 0  9999","TIME_SYSTEM":"UTC","MEAN_ELEMENT_THEORY":"SGP4","REF_FRAME":"TEME","APOAPSIS":"548.330","SEMIMAJOR_AXIS":"6925.343","PERIOD":"95.592"},{"MEAN_ANOMALY":"320.4955","TLE_LINE2":"2 47812  53.0538 308.3192 0002204  39.6194 320.4955 15.06405064 93577","RCS_SIZE":"LARGE","ECCENTRICITY":"0.00022040","SITE":"AFETR","GP_ID":"217531074","LAUNCH_DATE":"2021-03-11","CLASSIFICATION_TYPE":"U","ARG_OF_PERICENTER":"39.6194","EPOCH":"2022-11-12T09:24:17.208576","DECAY_DATE":null,"RA_OF_ASC_NODE":"308.3192","MEAN_MOTION":"15.06405064","EPHEMERIS_TYPE":"0","REV_AT_EPOCH":"9357","APOAPSIS":"548.724","MEAN_ELEMENT_THEORY":"SGP4","REF_FRAME":"TEME","TIME_SYSTEM":"UTC","TLE_LINE1":"1 47812U 21018AB  22316.39186584  .00004133  00000-0  29618-3 0  9992","NORAD_CAT_ID":"47812","PERIAPSIS":"545.672","PERIOD":"95.592","SEMIMAJOR_AXIS":"6925.333","INCLINATION":"53.0538","BSTAR":"0.00029618000000","OBJECT_TYPE":"PAYLOAD","ELEMENT_SET_NO":"999","COUNTRY_CODE":"US","CENTER_NAME":"EARTH","MEAN_MOTION_DDOT":"0.0000000000000","MEAN_MOTION_DOT":"0.00004133","OBJECT_NAME":"STARLINK-2393","OBJECT_ID":"2021-018AB","FILE":"3652392"},{"NORAD_CAT_ID":"47813","PERIAPSIS":"545.928","TLE_LINE1":"1 47813U 21018AC  22316.30985815  .00027829  00000-0  18788-2 0  9990","MEAN_ELEMENT_THEORY":"SGP4","REF_FRAME":"TEME","TIME_SYSTEM":"UTC","APOAPSIS":"548.382","PERIOD":"95.591","SEMIMAJOR_AXIS":"6925.290","INCLINATION":"53.0541","BSTAR":"0.00187880000000","OBJECT_TYPE":"PAYLOAD","ELEMENT_SET_NO":"999","FILE":"3652392","OBJECT_ID":"2021-018AC","OBJECT_NAME":"STARLINK-2394","MEAN_MOTION_DOT":"0.00027829","MEAN_MOTION_DDOT":"0.0000000000000","COUNTRY_CODE":"US","CENTER_NAME":"EARTH","RCS_SIZE":"LARGE","TLE_LINE2":"2 47813  53.0541 278.7076 0001772  51.7972 308.3176 15.06419213 94045","MEAN_ANOMALY":"308.3176","LAUNCH_DATE":"2021-03-11","GP_ID":"217529822","ECCENTRICITY":"0.00017720","SITE":"AFETR","RA_OF_ASC_NODE":"278.7076","DECAY_DATE":null,"EPOCH":"2022-11-12T07:26:11.744160","CLASSIFICATION_TYPE":"U","ARG_OF_PERICENTER":"51.7972","EPHEMERIS_TYPE":"0","REV_AT_EPOCH":"9404","MEAN_MOTION":"15.06419213"},{"CLASSIFICATION_TYPE":"U","ARG_OF_PERICENTER":"46.1198","DECAY_DATE":null,"EPOCH":"2022-11-12T20:45:00.456768","RA_OF_ASC_NODE":"296.2036","MEAN_MOTION":"15.06423471","EPHEMERIS_TYPE":"0","REV_AT_EPOCH":"9385","MEAN_ANOMALY":"313.9941","TLE_LINE2":"2 47814  53.0547 296.2036 0001823  46.1198 313.9941 15.06423471 93859","RCS_SIZE":"LARGE","ECCENTRICITY":"0.00018230","SITE":"AFETR","LAUNCH_DATE":"2021-03-11","GP_ID":"217585649","INCLINATION":"53.0547","OBJECT_TYPE":"PAYLOAD","BSTAR":"0.00044531000000","ELEMENT_SET_NO":"999","COUNTRY_CODE":"US","CENTER_NAME":"EARTH","MEAN_MOTION_DOT":"0.00006362","MEAN_MOTION_DDOT":"0.0000000000000","OBJECT_ID":"2021-018AD","OBJECT_NAME":"STARLINK-2395","FILE":"3652635","APOAPSIS":"548.404","REF_FRAME":"TEME","MEAN_ELEMENT_THEORY":"SGP4","TIME_SYSTEM":"UTC","TLE_LINE1":"1 47814U 21018AD  22316.86458862  .00006362  00000-0  44531-3 0  9994","NORAD_CAT_ID":"47814","PERIAPSIS":"545.879","PERIOD":"95.591","SEMIMAJOR_AXIS":"6925.277"}];
